{
"type": "FeatureCollection",
"name": "akoakoa_turbidity_roi_simple",
"crs": { "type": "name", "properties": { "name": "urn:ogc:def:crs:OGC:1.3:CRS84" } },
"features": [
{ "type": "Feature", "properties": { }, "geometry": { "type": "MultiPolygon", "coordinates": [ [ [ [ -155.849695237212046, 20.288208280943746 ], [ -155.847385184505981, 20.265437761412578 ], [ -155.865205591095588, 20.262467693647643 ], [ -155.8810459525086, 20.255207528000028 ], [ -155.896886313921584, 20.228806925645053 ], [ -155.901506419333685, 20.192506097406962 ], [ -155.892266208509454, 20.149275111050695 ], [ -155.88863612568565, 20.124854553872346 ], [ -155.880715944979158, 20.113964305400916 ], [ -155.879725922390833, 20.10571411716499 ], [ -155.851345274859256, 20.066443221161965 ], [ -155.81999455956273, 20.029482377865001 ], [ -155.820324567092143, 20.014962046569767 ], [ -155.825604687563157, 19.984931361390984 ], [ -155.829564777916403, 19.970411030095747 ], [ -155.839465003799518, 19.969751015036874 ], [ -155.852665304976995, 19.962490849389255 ], [ -155.869165681448862, 19.939720329858091 ], [ -155.874115794390406, 19.938400299740341 ], [ -155.876755854625912, 19.930810126563287 ], [ -155.883686012744079, 19.929160088916099 ], [ -155.887646103097325, 19.920249885621296 ], [ -155.884676035332404, 19.914969765150303 ], [ -155.897876336509881, 19.904079516678877 ], [ -155.906456532275257, 19.882629027265459 ], [ -155.920976863570502, 19.86843870349966 ], [ -155.918996818393879, 19.853918372204426 ], [ -155.936487217454044, 19.846658206556807 ], [ -155.94803748098434, 19.850288289380618 ], [ -155.967177917691686, 19.847318221615684 ], [ -155.978728181221982, 19.838738025850315 ], [ -155.985658339340176, 19.827847777378889 ], [ -155.994238535105524, 19.822897664437331 ], [ -155.999848663105951, 19.812667431024778 ], [ -156.027569295578672, 19.787916866316991 ], [ -156.034169446167425, 19.785936821140368 ], [ -156.035159468755751, 19.78098670819881 ], [ -156.041429611815033, 19.777686632904437 ], [ -156.046049717227163, 19.769766452197945 ], [ -156.048029762403786, 19.748315962784531 ], [ -156.051329837698148, 19.744355872431285 ], [ -156.050339815109851, 19.734785654077605 ], [ -156.055949943110278, 19.728185503488863 ], [ -156.046709732286047, 19.715645217370248 ], [ -156.041759619344475, 19.695514758074584 ], [ -156.032189400990802, 19.689574622544711 ], [ -156.017669069695557, 19.668124133131297 ], [ -156.025589250402049, 19.665484072895801 ], [ -156.027899303108114, 19.652613779247751 ], [ -156.016019032048376, 19.649313703953379 ], [ -156.000838685694276, 19.640403500658575 ], [ -155.993248512517226, 19.64205353830576 ], [ -155.983678294163525, 19.624893146775026 ], [ -155.962557812279556, 19.580012122771571 ], [ -155.963877842397324, 19.565491791476333 ], [ -155.959917752044078, 19.558561633358153 ], [ -155.951997571337586, 19.527540925591058 ], [ -155.944077390631094, 19.487280006999722 ], [ -155.915696743099488, 19.480019841352107 ], [ -155.918006795805553, 19.466159525115742 ], [ -155.921306871099915, 19.45823934440925 ], [ -155.916356758158372, 19.434478802289775 ], [ -155.904806494628076, 19.420288478523975 ], [ -155.901836426863127, 19.409068222523114 ], [ -155.906126524745815, 19.396527936404503 ], [ -155.890286163332831, 19.370457341578966 ], [ -155.879725922390833, 19.329206400399318 ], [ -155.886656080509027, 19.283665361336986 ], [ -155.896226298862672, 19.250004593334392 ], [ -155.896556306392114, 19.209743674743056 ], [ -155.904146479569164, 19.169152748622285 ], [ -155.909426600040177, 19.153972402268174 ], [ -155.907446554863526, 19.145392206502809 ], [ -155.914706720511163, 19.120311634265583 ], [ -155.902826449451425, 19.083680798498058 ], [ -155.879065907331949, 19.050680045554341 ], [ -155.877415869684768, 19.037149736847418 ], [ -155.846725169447097, 19.022629405552181 ], [ -155.795904009913784, 19.013389194727939 ], [ -155.753003031086934, 18.977748381548725 ], [ -155.727262443790863, 18.971148230959983 ], [ -155.6992118037887, 18.952337801782065 ], [ -155.681061389669651, 18.935507417780766 ], [ -155.679081344493028, 18.909436822955232 ], [ -155.68997159296444, 18.891286408836187 ], [ -155.698221781200374, 18.897886559424929 ], [ -155.705151939318569, 18.912076883190728 ], [ -155.704821931789127, 18.925277184368216 ], [ -155.730892526614667, 18.943757606016696 ], [ -155.762573249440635, 18.955967884605872 ], [ -155.800524115325885, 18.981378464372536 ], [ -155.846065154388214, 18.997878840844397 ], [ -155.885006042861818, 19.014049209786819 ], [ -155.897546328980411, 19.020979367904999 ], [ -155.903816472039722, 19.042429857318417 ], [ -155.9265869915709, 19.071470519908889 ], [ -155.941107322866145, 19.11338147614741 ], [ -155.937807247571754, 19.1612325679158 ], [ -155.93120709698303, 19.178392959446533 ], [ -155.92361692380598, 19.216673832861247 ], [ -155.921966886158771, 19.252644653569899 ], [ -155.913716697922865, 19.279375263454309 ], [ -155.910746630157917, 19.318316151927899 ], [ -155.908436577451852, 19.339436633811875 ], [ -155.919986840982148, 19.371117356637846 ], [ -155.933517149689095, 19.39520790628676 ], [ -155.933847157218537, 19.40939823005256 ], [ -155.945397420748833, 19.437118862525281 ], [ -155.950347533690376, 19.461869427233069 ], [ -155.968827955338867, 19.472099660645622 ], [ -155.972788045692113, 19.489920067235229 ], [ -155.983348286634111, 19.517640699707954 ], [ -155.979388196280865, 19.533151053591499 ], [ -155.987638384516799, 19.548001392416172 ], [ -155.995558565223291, 19.593212423949065 ], [ -156.009748888989094, 19.617962988656853 ], [ -156.02888932569644, 19.627863214539971 ], [ -156.04406967205054, 19.632813327481529 ], [ -156.055289928051394, 19.653603801836066 ], [ -156.052649867815916, 19.671754215955112 ], [ -156.065190153934509, 19.682644464426538 ], [ -156.071790304523262, 19.700464871016148 ], [ -156.081690530406377, 19.721915360429563 ], [ -156.082680552994731, 19.731155571253804 ], [ -156.077400432523717, 19.748315962784538 ], [ -156.067830214170044, 19.78428678349319 ], [ -156.049349792521582, 19.805737272906605 ], [ -156.016349039577847, 19.83477793549708 ], [ -155.985328331810734, 19.865798643264171 ], [ -155.971138008044932, 19.870748756205732 ], [ -155.943747383101652, 19.876028876676724 ], [ -155.926256984041487, 19.903089494090572 ], [ -155.906786539804727, 19.942360390093594 ], [ -155.882035975096926, 19.965790924683635 ], [ -155.862235523330696, 19.986581399038176 ], [ -155.849695237212075, 19.993181549626922 ], [ -155.848045199564893, 20.018592129393582 ], [ -155.863555553448435, 20.044992731748557 ], [ -155.898206344039352, 20.086243672928205 ], [ -155.914706720511219, 20.123204516225169 ], [ -155.924276938864892, 20.176005720935116 ], [ -155.925122583159038, 20.195486477907206 ], [ -155.921966886158827, 20.231776993410001 ], [ -155.899856381686533, 20.272367919530772 ], [ -155.871805741684369, 20.287548265884883 ], [ -155.856625395330269, 20.288208280943756 ], [ -155.856625395330269, 20.288208280943756 ], [ -155.849695237212046, 20.288208280943746 ] ] ] ] } }
]
}
