{
"type": "FeatureCollection",
"name": "WBDHU12_WestHawaii2",
"crs": { "type": "name", "properties": { "name": "urn:ogc:def:crs:OGC:1.3:CRS84" } },
"features": [
{ "type": "Feature", "properties": { }, "geometry": { "type": "MultiPolygon", "coordinates": [ [ [ [ -155.875011671088316, 19.3412870671253 ], [ -155.878240097697756, 19.308662966650871 ], [ -155.884524085755658, 19.281276033622404 ], [ -155.890028838888185, 19.257285169224001 ], [ -155.891436449776592, 19.219807529320153 ], [ -155.896714990608103, 19.202212393215063 ], [ -155.901465677356498, 19.163854996505961 ], [ -155.906040412743806, 19.139925611403036 ], [ -155.912198710380608, 19.118811448076926 ], [ -155.900739360594571, 19.087746945644962 ], [ -155.901535, 19.078251 ], [ -155.94986, 19.049805 ], [ -155.950404, 19.050512 ], [ -155.950935, 19.051228 ], [ -155.951452, 19.051953 ], [ -155.951956, 19.052686 ], [ -155.952447, 19.053427 ], [ -155.952924, 19.054177 ], [ -155.953387, 19.054934 ], [ -155.953836, 19.055699 ], [ -155.954271, 19.056471 ], [ -155.954692, 19.057251 ], [ -155.955098, 19.058037 ], [ -155.95549, 19.05883 ], [ -155.955867, 19.059629 ], [ -155.95623, 19.060434 ], [ -155.956578, 19.061245 ], [ -155.95691, 19.062062 ], [ -155.957228, 19.062885 ], [ -155.957531, 19.063712 ], [ -155.969292, 19.096217 ], [ -155.969449746891797, 19.096666826968868 ], [ -155.957770112892774, 19.15681694206393 ], [ -155.95073205845074, 19.230012708261114 ], [ -155.935330060312822, 19.319624333790909 ], [ -155.935248338678264, 19.320099805119188 ], [ -155.954251085671785, 19.389776544095355 ], [ -155.995071801435586, 19.453822839517894 ], [ -156.011259326652294, 19.527722411159282 ], [ -156.041522960753042, 19.595287733802831 ], [ -156.075305622074808, 19.621328535238366 ], [ -156.088285558241864, 19.647829238246082 ], [ -156.092196952735719, 19.655815002004349 ], [ -156.111412745639058, 19.704058907591506 ], [ -156.125275808613281, 19.738864044420385 ], [ -156.108252235980018, 19.763518873751345 ], [ -156.104865450731381, 19.768423873076941 ], [ -156.071786594853762, 19.825432114057442 ], [ -156.021112602871085, 19.887366993147367 ], [ -155.961289140113792, 19.902146907475643 ], [ -155.915541786240539, 19.968304619230793 ], [ -155.898158474672357, 19.99849668669135 ], [ -155.888797179360807, 20.014755778548235 ], [ -155.914837980796335, 20.048538439870015 ], [ -155.945805420341287, 20.11047331895994 ], [ -155.95495489111596, 20.179446252491903 ], [ -155.945805420341287, 20.248419186023863 ], [ -155.935434690831471, 20.275760200186145 ], [ -155.93492, 20.276794 ], [ -155.93452, 20.277584 ], [ -155.934105, 20.278368 ], [ -155.933676, 20.279145 ], [ -155.933232, 20.279914 ], [ -155.932774, 20.280676 ], [ -155.932302, 20.28143 ], [ -155.931817, 20.282177 ], [ -155.931317, 20.282915 ], [ -155.930804, 20.283645 ], [ -155.930278, 20.284366 ], [ -155.929738, 20.285079 ], [ -155.929185, 20.285783 ], [ -155.928619, 20.286477 ], [ -155.928041, 20.287162 ], [ -155.887858, 20.251961 ], [ -155.884623271539539, 20.240777561378358 ], [ -155.890380741610329, 20.231527855362973 ], [ -155.895307379719753, 20.186836209656036 ], [ -155.884750298056701, 20.130003920036586 ], [ -155.850967636734879, 20.074051387222394 ], [ -155.830550094617678, 20.053830167625541 ], [ -155.814369753636299, 20.037805406845905 ], [ -155.821751631565945, 19.967150289519491 ], [ -155.82175971080045, 19.967072959703437 ], [ -155.827327821556025, 19.963912680625949 ], [ -155.847800512235978, 19.952293045375157 ], [ -155.870498237811546, 19.925372487134364 ], [ -155.897770698774451, 19.878041571011664 ], [ -155.920996278433165, 19.844082958328837 ], [ -155.961992945558023, 19.840387979746765 ], [ -156.034308954949978, 19.771766948936907 ], [ -156.044162231168826, 19.730770281812038 ], [ -156.010379569847032, 19.669891110888418 ], [ -156.021464505593258, 19.661797348280079 ], [ -156.021372050834486, 19.661757788311188 ], [ -155.98486662249465, 19.646137677146545 ], [ -155.953547280227582, 19.561856975203156 ], [ -155.941758539037181, 19.495875214809054 ], [ -155.9142606355704, 19.487900822803695 ], [ -155.90656826682698, 19.4856700358681 ], [ -155.909955292258417, 19.475220702090287 ], [ -155.914837980796392, 19.460157088515714 ], [ -155.896890941969161, 19.413178075115123 ], [ -155.900937823273352, 19.398750063508949 ], [ -155.87870838010852, 19.350686402612045 ], [ -155.874897021837796, 19.342445627972648 ], [ -155.875011671088316, 19.3412870671253 ] ] ] ] } }
]
}
